OBJECT_NAME,OBJECT_ID,EPOCH,MEAN_MOTION,ECCENTRICITY,INCLINATION,RA_OF_ASC_NODE,ARG_OF_PERICENTER,MEAN_ANOMALY,EPHEMERIS_TYPE,CLASSIFICATION_TYPE,NORAD_CAT_ID,ELEMENT_SET_NO,REV_AT_EPOCH,BSTAR,MEAN_MOTION_DOT,MEAN_MOTION_DDOT
ONEWEB-0395,2021-132G,2026-06-04T02:53:13.193376,13.11416427,.00018982,87.8903,23.6698,91.0290,269.1056,0,U,50475,999,21400,-.1489678E-2,-.515E-5,0
ONEWEB-0396,2021-132H,2026-06-04T00:58:26.995008,13.18688805,.00019286,87.9167,338.0708,88.9866,271.1487,0,U,50476,999,21990,.14521683E-3,.7E-6,0
ONEWEB-0397,2021-132J,2026-06-04T01:20:18.452832,13.18687110,.00018785,87.9163,338.0680,87.0199,273.1148,0,U,50477,999,21988,-.38609208E-3,-.139E-5,0
ONEWEB-0398,2021-132K,2026-06-03T15:07:38.219808,13.11417062,.0001788,87.8902,23.7554,97.3273,262.8058,0,U,50478,999,21383,.14311E-2,.52E-5,0
ONEWEB-0399,2021-132L,2026-06-04T01:47:18.715488,13.11418283,.00023004,87.8908,23.6773,79.5222,280.6165,0,U,50479,999,21388,.11153869E-2,.408E-5,0
ONEWEB-0400,2021-132M,2026-06-04T00:48:44.922528,13.18684424,.00018066,87.9166,338.0618,95.7975,264.3363,0,U,50480,999,21987,-.61689678E-4,-.11E-6,0
ONEWEB-0401,2021-132N,2026-06-04T00:05:02.362848,13.18688571,.00017904,87.9160,338.0637,98.0099,262.1236,0,U,50481,999,21987,.49733773E-4,.33E-6,0
ONEWEB-0402,2021-132P,2026-06-04T01:00:54.552384,13.18688352,.0001768,87.9167,338.0466,72.9285,287.2041,0,U,50482,999,21990,-.65243651E-4,-.13E-6,0
ONEWEB-0403,2021-132Q,2026-06-04T01:37:18.213888,13.18688113,.00019733,87.9164,338.0651,95.6329,264.5028,0,U,50483,999,21986,.19210204E-3,.89E-6,0
ONEWEB-0404,2021-132R,2026-06-04T01:20:26.596896,13.11417521,.00021036,87.8902,23.6805,89.0586,271.0783,0,U,50484,999,21397,-.11105651E-2,-.381E-5,0
ONEWEB-0405,2021-132S,2026-06-04T00:07:29.533152,13.18685745,.00017344,87.9169,338.0625,104.2848,255.8477,0,U,50485,999,22025,.46522025E-4,.31E-6,0
ONEWEB-0406,2021-132T,2026-06-04T01:44:35.327904,13.18686695,.00022913,87.9160,338.0657,102.2851,257.8538,0,U,50486,999,21989,-.26959332E-3,-.93E-6,0
ONEWEB-0407,2021-132U,2026-06-04T01:34:53.392800,13.18686251,.00016159,87.9168,338.0593,86.6598,273.4719,0,U,50487,999,21983,-.6393087E-4,-.12E-6,0
ONEWEB-0409,2021-132V,2026-06-03T14:18:47.774592,13.11418567,.00021027,87.8904,23.7586,81.3153,278.8213,0,U,50488,999,21380,-.11861558E-2,-.408E-5,0
ONEWEB-0412,2021-132W,2026-06-04T01:17:52.693440,13.18688583,.00017864,87.9167,338.0704,78.5594,281.5739,0,U,50489,999,21992,-.14634913E-4,.7E-7,0
ONEWEB-0413,2021-132X,2026-06-04T01:25:08.726592,13.18680665,.00015631,87.9150,338.0689,86.4138,273.7173,0,U,50490,999,21986,.4820674E-3,.203E-5,0
ONEWEB-0414,2021-132Y,2026-06-04T01:03:18.972576,13.18684553,.00019187,87.9166,338.0523,84.9187,275.2164,0,U,50491,999,21989,-.20092994E-4,.5E-7,0
ONEWEB-0417,2021-132Z,2026-06-04T01:15:27.290880,13.18684625,.00020517,87.9158,338.0717,93.3886,266.7481,0,U,50492,999,21987,.33254744E-4,.26E-6,0
ONEWEB-0418,2021-132AA,2026-06-04T01:29:50.441568,13.18686110,.00022118,87.9161,338.0675,98.7097,261.4286,0,U,50493,999,21993,-.15176622E-4,.7E-7,0
ONEWEB-0419,2021-132AB,2026-06-04T00:07:03.593280,13.18665998,.00019987,87.9174,338.0818,111.0199,249.1147,0,U,50494,999,21984,.28432728E-3,.125E-5,0
ONEWEB-0420,2021-132AC,2026-06-04T01:05:44.614464,13.18684534,.0001641,87.9157,338.0751,92.5636,267.5684,0,U,50495,999,21984,-.59340425E-4,-.1E-6,0
ONEWEB-0421,2021-132AD,2026-06-04T00:56:01.721184,13.18695990,.00022546,87.9168,338.0705,84.4536,275.6854,0,U,50496,999,21988,.43246079E-3,.183E-5,0
ONEWEB-0424,2021-132AE,2026-06-04T01:49:27.024672,13.18688254,.00019011,87.9166,338.0630,108.0579,252.0760,0,U,50497,999,21991,.15641307E-3,.75E-6,0
ONEWEB-0426,2021-132AF,2026-06-04T00:49:59.274912,13.18687861,.00025046,87.9166,338.0631,83.4681,276.6736,0,U,50498,999,21985,-.41545046E-4,-.3E-7,0
ONEWEB-0427,2021-132AG,2026-06-03T13:02:11.215104,13.18688125,.00020817,87.9167,338.1493,91.7524,268.3847,0,U,50499,999,21981,.26495755E-3,.117E-5,0
ONEWEB-0429,2021-132AH,2026-06-04T01:27:35.936640,13.18685063,.00017336,87.9154,338.0716,94.2239,265.9091,0,U,50500,999,21985,.16491243E-3,.78E-6,0
ONEWEB-0430,2021-132AJ,2026-06-04T01:10:36.161760,13.18685613,.00016041,87.9158,338.0725,96.4261,263.7053,0,U,50501,999,21989,.22875947E-3,.103E-5,0
ONEWEB-0432,2021-132AK,2026-06-04T00:08:37.538592,13.18683130,.0001575,87.9181,338.0556,101.8009,258.3300,0,U,50502,999,21984,.18223379E-3,.85E-6,0
ONEWEB-0440,2021-132AL,2026-06-04T01:39:43.827264,13.18686994,.00015787,87.9164,338.0634,81.7730,278.3581,0,U,50503,999,21984,-.29137678E-3,-.102E-5,0
ONEWEB-0450,2021-132AM,2026-06-04T01:30:14.221440,13.18687690,.00016213,87.9153,338.0713,93.4740,266.6577,0,U,50504,999,21987,.15727287E-3,.75E-6,0
